NORAD_CAT_ID,OBJECT_NAME,OBJECT_TYPE,EPOCH,MEAN_MOTION,ECCENTRICITY,INCLINATION,RA_OF_ASC_NODE,ARG_OF_PERICENTER,MEAN_ANOMALY,BSTAR,MEAN_MOTION_DOT,MEAN_MOTION_DDOT,TLE_LINE0,TLE_LINE1,TLE_LINE2,SEMIMAJOR_AXIS,PERIOD,APOGEE,PERIGEE,DECAYED
53975.0,STARLINK-5137,PAYLOAD,2024-05-14 12:49:52,15.08872889,0.0001299,53.2174,320.2046,87.9734,272.1407,0.00058167,8.99e-05,0.0,0 STARLINK-5137,1 53975U 22125M   24135.53463410  .00008990  00000-0  58167-3 0  9998,2 53975  53.2174 320.2046 0001299  87.9734 272.1407 15.08872889 89139,6917.78,95.435,540.543,538.746,0.0
53975.0,STARLINK-5137,PAYLOAD,2024-05-14 19:11:24,15.08860741,9.92e-05,53.2185,319.0146,83.4086,276.7019,0.00010859,1.442e-05,0.0,0 STARLINK-5137,1 53975U 22125M   24135.79959245  .00001442  00000-0  10859-3 0  9993,2 53975  53.2185 319.0146 0000992  83.4086 276.7019 15.08860741 89243,6917.817,95.436,540.368,538.996,0.0
53975.0,STARLINK-5137,PAYLOAD,2024-05-15 12:40:39,15.08839006,0.0001895,53.2187,315.7442,91.9026,268.2183,-0.00015692,-2.785e-05,0.0,0 STARLINK-5137,1 53975U 22125M   24136.52823900 -.00002785  00000-0 -15692-3 0  9996,2 53975  53.2187 315.7442 0001895  91.9026 268.2183 15.08839006 89358,6917.883,95.438,541.059,538.437,0.0
53975.0,STARLINK-5137,PAYLOAD,2024-05-15 17:26:49,15.08837909,0.0001587,53.2194,314.8532,86.527,273.5903,2.5587e-05,1.19e-06,0.0,0 STARLINK-5137,1 53975U 22125M   24136.72696067  .00000119  00000-0  25587-4 0  9992,2 53975  53.2194 314.8532 0001587  86.5270 273.5903 15.08837909 89310,6917.887,95.438,540.85,538.654,0.0
53975.0,STARLINK-5137,PAYLOAD,2024-05-16 04:34:31,15.08854691,0.0001612,53.2198,312.772,88.2397,271.8779,0.00082727,0.00012908,0.0,0 STARLINK-5137,1 53975U 22125M   24137.19063894  .00012908  00000-0  82727-3 0  9997,2 53975  53.2198 312.7720 0001612  88.2397 271.8779 15.08854691 89452,6917.835,95.437,540.816,538.585,0.0
53975.0,STARLINK-5137,PAYLOAD,2024-05-16 22:03:45,15.08850733,6.18e-05,53.2177,309.4968,82.8276,277.2787,0.00053586,8.253e-05,0.0,0 STARLINK-5137,1 53975U 22125M   24137.91927484  .00008253  00000-0  53586-3 0  9990,2 53975  53.2177 309.4968 0000618  82.8276 277.2787 15.08850733 89493,6917.848,95.437,540.14,539.285,0.0
53975.0,STARLINK-5137,PAYLOAD,2024-05-17 04:25:17,15.08879673,0.0001935,53.2179,308.3106,77.2753,282.8456,0.0015176,0.00023974,0.0,0 STARLINK-5137,1 53975U 22125M   24138.18423384  .00023974  00000-0  15176-2 0  9999,2 53975  53.2179 308.3106 0001935  77.2753 282.8456 15.08879673 89600,6917.759,95.435,540.963,538.286,0.0
53975.0,STARLINK-5137,PAYLOAD,2024-05-18 04:16:06,15.08827042,0.0001277,53.2166,303.8484,100.5912,259.5224,0.00059089,9.125e-05,0.0,0 STARLINK-5137,1 53975U 22125M   24139.17784736  .00009125  00000-0  59089-3 0  9994,2 53975  53.2166 303.8484 0001277 100.5912 259.5224 15.08827042 89754,6917.92,95.438,540.668,538.902,0.0
53975.0,STARLINK-5137,PAYLOAD,2024-05-18 10:37:38,15.08833751,0.0001349,53.217,302.6592,95.0006,265.114,0.00071183,0.00011057,0.0,0 STARLINK-5137,1 53975U 22125M   24139.44280986  .00011057  00000-0  71183-3 0  9998,2 53975  53.2170 302.6592 0001349  95.0006 265.1140 15.08833751 89729,6917.899,95.438,540.698,538.831,0.0
53975.0,STARLINK-5137,PAYLOAD,2024-05-18 18:34:33,15.08834991,0.0001812,53.2164,301.1725,86.985,273.1349,0.00405,0.00064752,0.0,0 STARLINK-5137,1 53975U 22125M   24139.77400241  .00064752  00000-0  40500-2 0  9990,2 53975  53.2164 301.1725 0001812  86.9850 273.1349 15.08834991 89845,6917.896,95.438,541.014,538.507,0.0
53975.0,STARLINK-5137,PAYLOAD,2024-05-19 04:06:51,15.08884544,0.0001699,53.2164,299.3891,91.4657,268.653,0.00082944,0.00012953,0.0,0 STARLINK-5137,1 53975U 22125M   24140.17143273  .00012953  00000-0  82944-3 0  9990,2 53975  53.2164 299.3891 0001699  91.4657 268.6530 15.08884544 89835,6917.744,95.435,540.785,538.434,0.0
53975.0,STARLINK-5137,PAYLOAD,2024-05-19 16:49:58,15.08807035,0.0001724,53.2159,297.0106,107.5704,252.5476,0.0011474,0.00018004,0.0,0 STARLINK-5137,1 53975U 22125M   24140.70137043  .00018004  00000-0  11474-2 0  9999,2 53975  53.2159 297.0106 0001724 107.5704 252.5476 15.08807035 89981,6917.981,95.44,541.039,538.653,0.0
53975.0,STARLINK-5137,PAYLOAD,2024-05-20 13:29:59,15.08857141,0.0001636,53.2161,293.1442,108.8289,251.288,0.0021759,0.00034528,0.0,0 STARLINK-5137,1 53975U 22125M   24141.56249729  .00034528  00000-0  21759-2 0  9995,2 53975  53.2161 293.1442 0001636 108.8289 251.2880 15.08857141 90045,6917.828,95.436,540.825,538.561,0.0
53975.0,STARLINK-5137,PAYLOAD,2024-05-20 19:51:31,15.08867835,0.0001645,53.2169,291.9535,114.094,246.0225,0.0018676,0.00029583,0.0,0 STARLINK-5137,1 53975U 22125M   24141.82745322  .00029583  00000-0  18676-2 0  9993,2 53975  53.2169 291.9535 0001645 114.0940 246.0225 15.08867835 90153,6917.795,95.436,540.798,538.522,0.0
53975.0,STARLINK-5137,PAYLOAD,2024-05-21 13:20:46,15.08839366,0.0001304,53.2173,288.682,64.1933,295.9194,0.00047913,7.346e-05,0.0,0 STARLINK-5137,1 53975U 22125M   24142.55609353  .00007346  00000-0  47913-3 0  9997,2 53975  53.2173 288.6820 0001304  64.1933 295.9194 15.08839366 90265,6917.882,95.438,540.649,538.845,0.0
53975.0,STARLINK-5137,PAYLOAD,2024-05-21 14:56:09,15.08840478,0.0001412,53.2171,288.3842,53.6848,306.4274,0.00082829,0.00012919,0.0,0 STARLINK-5137,1 53975U 22125M   24142.62233455  .00012919  00000-0  82829-3 0  9998,2 53975  53.2171 288.3842 0001412  53.6848 306.4274 15.08840478 90209,6917.879,95.438,540.721,538.767,0.0
53975.0,STARLINK-5137,PAYLOAD,2024-05-22 10:00:47,15.08847345,0.0001441,53.2175,284.8192,76.7672,283.3481,0.00084781,0.00013233,0.0,0 STARLINK-5137,1 53975U 22125M   24143.41721653  .00013233  00000-0  84781-3 0  9997,2 53975  53.2175 284.8192 0001441  76.7672 283.3481 15.08847345 90321,6917.858,95.437,540.72,538.726,0.0
53975.0,STARLINK-5137,PAYLOAD,2024-05-23 13:02:21,15.08845282,0.0001311,53.2175,279.763,73.9859,286.1277,0.00072502,0.00011271,0.0,0 STARLINK-5137,1 53975U 22125M   24144.54330088  .00011271  00000-0  72502-3 0  9998,2 53975  53.2175 279.7630 0001311  73.9859 286.1277 15.08845282 90561,6917.864,95.437,540.636,538.822,0.0
53975.0,STARLINK-5137,PAYLOAD,2024-05-23 14:37:44,15.08849283,0.0001479,53.2169,279.4649,103.3999,256.7158,0.00081849,0.00012766,0.0,0 STARLINK-5137,1 53975U 22125M   24144.60953887  .00012766  00000-0  81849-3 0  9997,2 53975  53.2169 279.4649 0001479 103.3999 256.7158 15.08849283 90509,6917.852,95.437,540.74,538.694,0.0
53975.0,STARLINK-5137,PAYLOAD,2024-05-23 17:48:30,15.08872137,0.0001259,53.2173,278.8731,93.9432,266.1704,0.0010798,0.00016954,0.0,0 STARLINK-5137,1 53975U 22125M   24144.74201689  .00016954  00000-0  10798-2 0  9995,2 53975  53.2173 278.8731 0001259  93.9432 266.1704 15.08872137 90596,6917.782,95.436,540.518,538.776,0.0
53975.0,STARLINK-5137,PAYLOAD,2024-05-24 12:53:07,15.08853554,0.000103,53.2162,275.3036,126.1853,233.9234,0.00041216,6.28e-05,0.0,0 STARLINK-5137,1 53975U 22125M   24145.53689163  .00006280  00000-0  41216-3 0  9991,2 53975  53.2162 275.3036 0001030 126.1853 233.9234 15.08853554 90713,6917.839,95.437,540.416,538.991,0.0
53975.0,STARLINK-5137,PAYLOAD,2024-05-24 14:28:30,15.08854979,0.0001109,53.2163,275.0058,115.7905,244.3201,0.00047059,7.213e-05,0.0,0 STARLINK-5137,1 53975U 22125M   24145.60313162  .00007213  00000-0  47059-3 0  9990,2 53975  53.2163 275.0058 0001109 115.7905 244.3201 15.08854979 90659,6917.835,95.437,540.467,538.932,0.0
53975.0,STARLINK-5137,PAYLOAD,2024-05-24 17:39:16,15.08849521,0.0001308,53.2163,274.409,124.8217,235.2899,0.00037571,5.698e-05,0.0,0 STARLINK-5137,1 53975U 22125M   24145.73561140  .00005698  00000-0  37571-3 0  9998,2 53975  53.2163 274.4090 0001308 124.8217 235.2899 15.08849521 90677,6917.851,95.437,540.621,538.811,0.0
53975.0,STARLINK-5137,PAYLOAD,2024-05-25 12:43:54,15.08829186,9.33e-05,53.2163,270.841,78.0983,282.0113,-2.6706e-05,-7.13e-06,0.0,0 STARLINK-5137,1 53975U 22125M   24146.53049716 -.00000713  00000-0 -26706-4 0  9991,2 53975  53.2163 270.8410 0000933  78.0983 282.0113 15.08829186 90861,6917.913,95.438,540.424,539.133,0.0
53975.0,STARLINK-5137,PAYLOAD,2024-05-25 14:19:17,15.0883343,0.0001089,53.2166,270.5408,119.0654,241.0448,0.00011522,1.546e-05,0.0,0 STARLINK-5137,1 53975U 22125M   24146.59673566  .00001546  00000-0  11522-3 0  9995,2 53975  53.2166 270.5408 0001089 119.0654 241.0448 15.08833430 90809,6917.9,95.438,540.519,539.012,0.0
53975.0,STARLINK-5137,PAYLOAD,2024-05-26 14:10:05,15.08844975,0.0001008,53.2161,266.0815,99.2709,260.8397,0.00037326,5.658e-05,0.0,0 STARLINK-5137,1 53975U 22125M   24147.59033970  .00005658  00000-0  37326-3 0  9993,2 53975  53.2161 266.0815 0001008  99.2709 260.8397 15.08844975 90951,6917.865,95.437,540.428,539.033,0.0
53975.0,STARLINK-5137,PAYLOAD,2024-05-26 17:20:51,15.0884704,0.0001223,53.2165,265.4862,100.2541,259.8589,0.00044579,6.815e-05,0.0,0 STARLINK-5137,1 53975U 22125M   24147.72281954  .00006815  00000-0  44579-3 0  9999,2 53975  53.2165 265.4862 0001223 100.2541 259.8589 15.08847040 91044,6917.859,95.437,540.57,538.878,0.0
53975.0,STARLINK-5137,PAYLOAD,2024-05-27 12:25:29,15.08847936,0.0001591,53.2173,261.9172,73.8213,286.2954,0.00029776,4.455e-05,0.0,0 STARLINK-5137,1 53975U 22125M   24148.51770017  .00004455  00000-0  29776-3 0  9990,2 53975  53.2173 261.9172 0001591  73.8213 286.2954 15.08847936 91164,6917.856,95.437,540.822,538.621,0.0
53975.0,STARLINK-5137,PAYLOAD,2024-05-27 14:00:51,15.08877928,0.0001218,53.2169,261.6291,97.8639,262.2492,0.0010439,0.00016382,0.0,0 STARLINK-5137,1 53975U 22125M   24148.58393051  .00016382  00000-0  10439-2 0  9993,2 53975  53.2169 261.6291 0001218  97.8639 262.2492 15.08877928 91101,6917.764,95.435,540.472,538.787,0.0
53975.0,STARLINK-5137,PAYLOAD,2024-05-27 17:11:38,15.08845251,0.000146,53.2176,261.0272,68.8402,291.2746,0.00020831,3.029e-05,0.0,0 STARLINK-5137,1 53975U 22125M   24148.71642072  .00003029  00000-0  20831-3 0  9990,2 53975  53.2176 261.0272 0001460  68.8402 291.2746 15.08845251 91127,6917.864,95.437,540.739,538.719,0.0
